361P/Spacewatch,e,13.8914,203.2507,219.0636,4.939031,0.0897928,0.43799872,91.0342,04/11.0/2021,2000,g 12.0,4.0
# From MPEC 2017-V13
362P/,e,15.5568,192.5716,53.7012,3.968679,0.1246623,0.27952723,210.8753,04/11.0/2021,2000,g 12.9,2.0
# From MPC114609
363P/Lemmon,e,5.3864,146.9795,341.2526,3.545445,0.1476379,0.52791471,166.9630,04/11.0/2021,2000,g 17.5,4.0
# From MPEC 2021-F20
364P/PANSTARRS,e,12.1411,46.1944,212.0031,2.879196,0.2017424,0.72225360,206.1150,04/11.0/2021,2000,g 17.0,2.0
# From MPC111775
365P/PANSTARRS,e,9.8285,87.2937,66.2935,3.176309,0.1741085,0.57677775,200.8962,04/11.0/2021,2000,g 17.0,4.0
# From MPC114610
366P/Spacewatch,e,8.8590,70.7578,153.1470,3.495696,0.1508008,0.34830727,150.0841,04/11.0/2021,2000,g 15.0,4.0
# From MPC112395
367P/Catalina,e,8.4627,58.7200,172.9127,3.505602,0.1501620,0.28029585,153.9220,04/11.0/2021,2000,g 17.5,2.0
# From MPC114610
368P/NEAT,e,15.4817,257.9478,118.7874,5.526939,0.0758537,0.62636810,71.2582,04/11.0/2021,2000,g 14.0,4.0
# From MPC114610
369P/Hill,e,10.3133,47.2968,13.1855,4.384635,0.1073505,0.55437863,97.5685,04/11.0/2021,2000,g 15.0,4.0
# From MPEC 2021-F20
370P/NEAT,e,19.4038,55.1210,356.6852,6.435236,0.0603750,0.61455235,62.5776,04/11.0/2021,2000,g 13.0,4.0
# From MPC114610
371P/LINEAR-Skiff,e,17.3774,67.3048,308.4592,4.181134,0.1152824,0.47660603,105.9556,04/11.0/2021,2000,g 16.0,4.0
# From MPEC 2020-K19
372P/McNaught,e,9.5101,325.8160,27.2769,4.504165,0.1031057,0.15270228,93.0214,04/11.0/2021,2000,g 13.5,4.0
# From MPEC 2021-F20
373P/Rinner,e,13.7609,231.9481,221.1097,3.803884,0.1328505,0.39218277,97.4071,04/11.0/2021,2000,g 14.5,4.0
# From MPC114610
374P/Larson,e,10.7630,7.9121,51.4988,4.973945,0.0888490,0.46247953,72.9715,04/11.0/2021,2000,g 14.0,4.0
# From MPEC 2021-F20
375P/Hill,e,17.3612,359.9439,119.4650,5.557002,0.0752390,0.65860013,63.3480,04/11.0/2021,2000,g 16.0,4.0
# From MPEC 2020-W26
376P/LONEOS,e,1.1920,314.8099,284.8644,5.842700,0.0697885,0.51758609,39.2003,04/11.0/2021,2000,g 12.5,4.0
# From MPEC 2021-FB5
377P/Scotti,e,9.0231,226.0597,355.0213,6.711021,0.0566919,0.25241051,15.4885,04/11.0/2021,2000,g  9.5,4.0
# From MPEC 2019-TG9
378P/McNaught,e,19.0705,94.4604,193.9492,6.386647,0.0610653,0.47078264,10.5562,04/11.0/2021,2000,g 12.0,4.0
# From MPC115889
379P/Spacewatch,e,12.4139,183.8386,31.0563,3.523013,0.1490502,0.33976230,92.2327,04/11.0/2021,2000,g 15.0,4.0
# From MPEC 2020-KB7
380P/PANSTARRS,e,8.2845,132.9850,88.8937,4.521766,0.1025043,0.33212680,69.4444,04/11.0/2021,2000,g 12.5,4.0
# From MPEC 2021-F20
381P/LINEAR-Spacewatch,e,28.3755,173.7736,173.1584,7.122516,0.0518506,0.68182502,29.1384,04/11.0/2021,2000,g 17.5,2.0
# From MPC115889
382P/Larson,e,7.8074,175.5462,173.6303,6.353628,0.0615420,0.30789030,338.5076,04/11.0/2021,2000,g  8.0,4.0
# From MPC118844
383P/Christensen,e,12.3211,207.8739,133.6721,3.545080,0.1476607,0.59959993,78.6593,04/11.0/2021,2000,g 18.0,4.0
# From MPEC 2020-W26
384P/Kowalski,e,7.2834,354.2272,37.6246,2.901176,0.1994541,0.61553096,109.2019,04/11.0/2021,2000,g 19.5,4.0
# From MPEC 2021-F20
385P/Hill,e,16.8290,357.0629,44.3265,4.288354,0.1109860,0.40144114,63.7242,04/11.0/2021,2000,g 13.0,4.0
# From MPEC 2021-FB5
386P/PANSTARRS,e,15.2296,134.9480,353.2331,4.057214,0.1206041,0.41633133,28.3057,04/11.0/2021,2000,g 14.5,4.0
# From MPEC 2021-F20
387P/Boattini,e,8.9182,259.3219,162.7738,4.798910,0.0937541,0.73606909,54.6394,04/11.0/2021,2000,g 15.0,4.0
# From MPEC 2021-F20
388P/Gibbs,e,23.8664,37.0435,42.3698,5.244651,0.0820596,0.61798483,51.4885,04/11.0/2021,2000,g 13.0,4.0
# From MPEC 2021-F20
389P/Siding Spring,e,160.0674,218.8510,249.2996,5.626507,0.0738492,0.70433586,34.6191,04/11.0/2021,2000,g 16.0,4.0
# From MPEC 2021-F20
390P/Gibbs,e,18.5611,152.2753,232.3499,5.802886,0.0705079,0.70708924,27.1261,04/11.0/2021,2000,g 12.0,4.0
# From MPEC 2021-F20
391P/Kowalski,e,21.2761,124.7302,186.9321,4.678423,0.0973991,0.12072325,108.8206,04/11.0/2021,2000,g  8.0,4.0
# From MPEC 2020-HN5
392P/LINEAR,e,4.9301,24.8810,71.9702,6.146619,0.0646770,0.68279930,24.2673,04/11.0/2021,2000,g 14.5,4.0
# From MPEC 2021-BE3
393P/Spacewatch-Hill,e,16.7919,36.4179,328.1944,4.786090,0.0941310,0.12050377,50.2363,04/11.0/2021,2000,g 11.0,4.0
# From MPEC 2020-KB7
394P/PANSTARRS,e,8.5296,98.1248,54.5182,4.332212,0.1093049,0.36792179,54.3971,04/11.0/2021,2000,g 16.0,2.4
# From MPEC 2021-BE3
395P/Catalina-NEAT,e,3.2782,223.7758,89.7971,6.536138,0.0589824,0.37811189,344.4295,04/11.0/2021,2000,g 10.0,4.0
# From MPEC 2020-KB7
396P/Leonard,e,5.4363,136.6635,8.6117,6.819270,0.0553474,0.41601469,32.7286,04/11.0/2021,2000,g 12.0,4.0
# From MPEC 2021-F20
397P/Lemmon,e,10.9283,8.2056,14.4262,3.827129,0.1316420,0.40502282,38.9192,04/11.0/2021,2000,g 12.0,4.0
# From MPEC 2021-FB5
398P/Boattini,e,11.0154,127.4623,320.2372,3.128375,0.1781254,0.58263608,18.7481,04/11.0/2021,2000,g 15.5,4.0
# From MPEC 2021-BE3
399P/PANSTARRS,e,13.3192,207.1464,214.2928,3.788802,0.1336445,0.44677581,354.4444,04/11.0/2021,2000,g 14.0,4.0
# From MPEC 2021-FB5
400P/PANSTARRS,e,10.9290,176.3968,238.7873,3.559392,0.1467710,0.40907135,8.7920,04/11.0/2021,2000,g 15.5,2.8
# From MPEC 2021-BE3
401P/McNaught,e,12.8040,359.8878,309.3169,5.772111,0.0710726,0.58013305,34.8522,04/11.0/2021,2000,g 12.5,4.0
# From MPEC 2021-F20
402P/LINEAR,e,30.8529,123.0885,326.7494,7.008819,0.0531174,0.43816267,346.8445,04/11.0/2021,2000,g  8.0,4.0
# From MPEC 2021-FB5
403P/Catalina,e,12.3206,163.8134,277.6686,5.426938,0.0779600,0.50336824,16.1099,04/11.0/2021,2000,g 12.0,4.0
# From MPEC 2020-W26
404P/Bressi,e,9.7667,262.2147,160.6002,4.840205,0.0925568,0.13715093,278.2147,04/11.0/2021,2000,g 10.0,4.0
# From MPEC 2021-FB5
405P/Lemmon,e,9.3652,3.3126,112.2452,3.609415,0.1437305,0.68917896,15.4776,04/11.0/2021,2000,g 17.5,4.0
# From MPEC 2021-F20
406P/Gibbs,e,1.2135,11.4727,352.3702,3.573772,0.1458860,0.54195969,30.2395,04/11.0/2021,2000,g 17.0,4.0
# From MPEC 2021-F20
407P/PANSTARRS-Fuls,e,4.8941,80.8304,92.4903,3.457345,0.1533169,0.38486292,66.6711,04/11.0/2021,2000,g 14.0,4.0
# From MPEC 2021-F20
408P/Novichonok-Gerke,e,19.3098,189.4834,225.8097,4.766968,0.0946980,0.27158726,309.0192,04/11.0/2021,2000,g 11.0,4.0
# From MPEC 2021-FB5
409P/LONEOS-Hill,e,17.1188,143.6712,15.1340,6.049284,0.0662442,0.71004159,4.8248,04/11.0/2021,2000,g 14.0,4.0
# From MPEC 2021-F20
410P/NEAT-LINEAR,e,9.3938,139.9807,313.0985,6.630052,0.0577336,0.51025631,355.7518,04/11.0/2021,2000,g 12.5,4.0
# From MPEC 2021-FB5
411P/Christensen,e,12.3771,77.6723,46.6861,5.818792,0.0702190,0.58088657,5.3739,04/11.0/2021,2000,g 13.5,4.0
# From MPEC 2021-F20
412P/WISE,e,8.9312,0.8490,155.9157,3.109778,0.1797256,0.47985603,22.7588,04/11.0/2021,2000,g 17.0,4.0
# From MPEC 2021-FB5
413P/Larson,e,15.9775,39.0255,186.0344,3.710888,0.1378755,0.42335100,346.1862,04/11.0/2021,2000,g 14.0,4.0
# From MPEC 2021-BE3
414P/STEREO,e,23.3840,257.7893,210.7321,2.794969,0.2109301,0.81167224,15.9496,04/11.0/2021,2000,g 19.0,4.0
# From MPEC 2021-FB5
415P/Tenagra,e,31.7867,160.2955,346.2285,4.115871,0.1180352,0.19484539,6.4925,04/11.0/2021,2000,g 12.0,4.0
# From MPEC 2021-F20
416P/Scotti,e,3.3613,355.8119,134.5256,4.013802,0.1225660,0.45439742,6.6807,04/11.0/2021,2000,g 15.5,4.0
# From MPEC 2021-FB5
417P/NEOWISE,e,8.1310,111.3509,129.4574,3.347757,0.1609063,0.55432632,358.2023,04/11.0/2021,2000,g 16.5,4.0
# From MPEC 2021-FB5
418P/LINEAR,e,5.7975,277.6614,307.0921,5.082345,0.0860217,0.66493907,343.6942,04/11.0/2021,2000,g 13.0,4.0
# From MPC107687
1I/`Oumuamua,h,09/09.4886/2017,122.6778,24.5997,241.6845,1.199252,0.255240,2000,23.0,2.0
# From MPEC 2020-K19
2I/Borisov,h,12/08.5549/2019,44.0527,308.1480,209.1251,3.356636,2.006548,2000,11.0,4.0
